P/2012 F2 (PANSTARRS),e,14.7025,226.9900,33.3242,6.334921,0.0618148,0.54123628,211.5658,08/23.0/2022,2000,g 12.0,4.0
# From MPEC 2022-ED3
P/2012 G1 (PANSTARRS),e,12.1735,283.2776,266.1008,4.164830,0.1159600,0.32949636,80.2223,08/23.0/2022,2000,g 15.0,4.0
# From MPC 80898
P/2012 K3 (Gibbs),e,13.1912,125.8173,172.2392,3.627873,0.1426349,0.42275805,157.1573,08/23.0/2022,2000,g 15.0,4.0
# From MPC 88326
P/2012 NJ (La Sagra),e,84.6052,315.5754,338.3802,8.465289,0.0400167,0.84683476,148.9024,08/23.0/2022,2000,g 14.5,4.0
# From MPC 81470
P/2012 O1 (McNaught),e,7.4279,91.9427,238.3098,3.541490,0.1478853,0.59440807,187.6797,08/23.0/2022,2000,g 17.5,4.0
# From MPC 80899
P/2012 O2 (McNaught),e,24.4741,120.6844,183.4728,3.625759,0.1427597,0.53220449,172.0302,08/23.0/2022,2000,g 17.0,4.0
# From MPC 82320
P/2012 T2 (PANSTARRS),e,12.5657,73.7155,310.6738,5.729660,0.0718639,0.16217635,244.5825,08/23.0/2022,2000,g 10.0,4.0
# From MPC 80900
P/2012 T3 (PANSTARRS),e,9.5607,114.3801,195.5294,6.151066,0.0646068,0.61689049,242.9944,08/23.0/2022,2000,g 15.0,4.0
# From MPC 82720
P/2012 U2 (PANSTARRS),e,10.7594,185.3239,228.2449,7.133463,0.0517313,0.49966199,184.6383,08/23.0/2022,2000,g 12.5,4.0
# From MPC 84024
P/2012 US27 (Siding Spring),e,39.3655,49.2012,0.8151,5.165397,0.0839554,0.64815505,293.6489,08/23.0/2022,2000,g 13.5,4.0
# From MPC 82721
P/2012 WA34 (Lemmon-PANSTARRS),e,6.0799,93.5820,356.4652,4.686669,0.0971421,0.34446756,329.0016,08/23.0/2022,2000,g 13.5,4.0
# From MPC 82721
P/2013 AL76 (Catalina),e,144.8628,146.0032,27.0471,6.498539,0.0594950,0.68615882,211.2170,08/23.0/2022,2000,g 16.0,4.0
# From MPEC 2022-K19
P/2013 EW90,e,31.7920,160.2936,346.1116,4.113316,0.1181451,0.19464871,65.5256,08/23.0/2022,2000,g 14.3,4.0
# From MPC 91612
P/2013 G1 (Kowalski),e,5.4591,221.3251,51.5359,6.895803,0.0544286,0.51157300,172.9542,08/23.0/2022,2000,g 11.0,4.0
# From MPC 84025
P/2013 G4 (PANSTARRS),e,5.9161,339.6369,214.6387,4.439357,0.1053717,0.40930824,6.8136,08/23.0/2022,2000,g 15.0,4.0
# From MPC 91613
P/2013 J2 (McNaught),e,15.5159,289.3654,37.8453,6.222872,0.0634918,0.65749656,208.1834,08/23.0/2022,2000,g 13.0,4.0
# From MPC 86229
P/2013 N3 (PANSTARRS),e,2.1739,17.4665,323.9611,7.394118,0.0490201,0.59318668,152.3455,08/23.0/2022,2000,g 13.0,4.0
# From MPC 85834
P/2013 N5 (PANSTARRS),e,23.4606,187.1552,176.9328,6.797177,0.0556175,0.73251500,185.4320,08/23.0/2022,2000,g 17.0,4.0
# From MPC 85834
P/2013 P1 (PANSTARRS),e,18.7248,160.5917,138.2437,8.580004,0.0392169,0.60493760,135.7738,08/23.0/2022,2000,g 12.0,4.0
# From MPC 94671
P/2013 R3 (Catalina-PANSTARRS),e,0.8649,341.9799,11.2761,3.032427,0.1866459,0.27556160,252.6499,08/23.0/2022,2000,g 14.0,4.0
# From unp
P/2013 R3-A (Catalina-PANSTARRS),e,0.8642,341.9467,11.3151,3.032284,0.1866591,0.27553124,252.6905,08/23.0/2022,2000,g  9.0,4.0
# From MPEC 2015-M77
P/2013 R3-B (Catalina-PANSTARRS),e,0.8655,342.0026,11.2499,3.032504,0.1866388,0.27557654,252.6282,08/23.0/2022,2000,g  9.0,4.0
# From MPC 85835
P/2013 T1 (PANSTARRS),e,24.3028,10.0803,346.1534,5.857506,0.0695240,0.62428902,229.6415,08/23.0/2022,2000,g 16.5,4.0
# From MPC 86643
P/2013 T2 (Schwartz),e,9.4577,0.8001,345.5704,3.491531,0.1510707,0.50116185,150.4796,08/23.0/2022,2000,g 16.0,4.0
# From MPC 91613
P/2013 W1 (PANSTARRS),e,4.6960,117.8424,1.2389,3.487956,0.1513030,0.59279415,107.6961,08/23.0/2022,2000,g 17.5,4.0
# From MPC101095
P/2013 YG46 (Spacewatch),e,7.8574,48.8362,242.5938,3.274130,0.1663643,0.45467971,337.3287,08/23.0/2022,2000,g 10.0,4.0
# From MPC 89728
P/2014 A2 (Hill),e,24.5412,106.6311,356.1517,5.927439,0.0682973,0.64552257,221.2109,08/23.0/2022,2000,g 15.0,4.0
# From MPC 92981
P/2014 A3 (PANSTARRS),e,13.7146,229.9768,214.0595,4.610141,0.0995710,0.24683641,335.9132,08/23.0/2022,2000,g 12.0,4.0
# From MPEC 2022-HC2
C/2014 B1 (Schwartz),e,28.4111,161.4213,345.6304,3967,0.0000039,0.99759476,0.0000,09/06.1297/2017,2000,g  4.0,4.0
# From MPC102095
P/2014 C1 (TOTAS),e,2.6929,167.8102,23.8945,3.033766,0.1865224,0.45053449,228.6182,08/23.0/2022,2000,g 15.5,4.0
# From MPEC 2022-P82
C/2014 F3 (Sheppard-Trujillo),e,6.5548,326.5116,4.3305,14.68443,0.0175153,0.61147969,7.8916,08/23.0/2022,2000,g  6.0,4.0
# From MPC 98560
P/2014 L2 (NEOWISE),e,5.1996,149.3471,182.7076,6.304768,0.0622588,0.64807796,183.9283,08/23.0/2022,2000,g 12.0,4.0
# From MPC 90769
P/2014 L3 (Hill),e,6.2703,115.4881,178.7007,8.176590,0.0421547,0.77297715,125.4120,08/23.0/2022,2000,g 16.0,4.0
# From MPC 91614
P/2014 M4 (PANSTARRS),e,3.3416,263.1991,148.0149,5.869422,0.0693124,0.59536450,193.7122,08/23.0/2022,2000,g 15.0,4.0
# From MPEC 2022-K19
P/2014 MG4 (Spacewatch-PANSTARRS),e,9.3680,311.7310,299.0610,5.013045,0.0878116,0.25901584,294.4396,08/23.0/2022,2000,g  9.5,4.0
# From MPC 98560
P/2014 O3 (PANSTARRS),e,7.7982,87.6425,204.7659,7.574377,0.0472807,0.38483090,144.1004,08/23.0/2022,2000,g 10.5,4.0
# From MPEC 2022-C56
C/2014 OG392 (PANSTARRS),e,9.0329,145.7977,254.2626,12.24921,0.0229901,0.18608214,6.0092,08/23.0/2022,2000,g  6.0,4.0
# From MPC 91616
P/2014 U4 (PANSTARRS),e,6.4292,11.8844,347.8150,3.508203,0.1499951,0.46491829,83.3027,08/23.0/2022,2000,g 18.0,4.0
# From MPEC 2022-PB4
C/2014 UN271 (Bernardinelli-Bernstein),h,01/23.5231/2031,95.4304,189.8984,326.2784,1.000288,10.942793,2000,2.5,3.2
# From MPC 95211
P/2014 V1 (PANSTARRS),e,22.5273,166.2003,177.6403,5.479647,0.0768379,0.53450190,212.4619,08/23.0/2022,2000,g 14.0,4.0
# From MPC 93586
P/2014 W1 (PANSTARRS),e,8.8365,246.2375,152.1509,4.465415,0.1044507,0.38920917,309.5133,08/23.0/2022,2000,g 15.5,4.0
# From MPC105542
P/2014 W4 (PANSTARRS),e,15.2822,33.3839,67.6231,6.590225,0.0582577,0.35302101,141.4447,08/23.0/2022,2000,g 11.0,4.0
# From MPC 94281
P/2014 X1 (Elenin),e,26.0403,61.5527,33.8809,6.205735,0.0637550,0.70932893,177.9669,08/23.0/2022,2000,g 15.0,4.0
# From MPC 92275
P/2015 A3 (PANSTARRS),e,172.5387,277.2893,249.4142,7.813966,0.0451229,0.85047369,123.8152,08/23.0/2022,2000,g 20.0,4.0
# From MPC 99270
P/2015 B1 (PANSTARRS),e,18.0489,352.9355,188.8918,9.492732,0.0336990,0.36669600,85.5447,08/23.0/2022,2000,g  8.5,4.0
# From MPC109141
P/2015 B4 (Lemmon-PANSTARRS),e,1.7625,266.0510,227.2968,8.519433,0.0396358,0.56035353,109.3441,08/23.0/2022,2000,g 11.0,4.0
# From MPC101096
P/2015 C1 (TOTAS-Gibbs),e,13.9119,348.7964,178.1424,6.576504,0.0584402,0.56067750,156.5560,08/23.0/2022,2000,g 12.5,4.0
# From MPC109141
P/2015 D5 (Kowalski),e,20.5274,74.0683,39.6941,8.956446,0.0367706,0.48962439,112.7583,08/23.0/2022,2000,g  9.0,4.0
# From MPC 96866
P/2015 D6 (Lemmon-PANSTARRS),e,20.2041,45.8853,125.0432,7.137625,0.0516861,0.36127427,135.1006,08/23.0/2022,2000,g 10.5,4.0
# From MPEC 2021-P47
P/2015 HG16 (PANSTARRS),e,18.8145,57.6824,47.6767,4.769036,0.0946364,0.35229595,285.2606,08/23.0/2022,2000,g 12.5,4.0
# From MPC 95213
P/2015 K5 (PANSTARRS),e,39.9442,134.2010,106.3394,6.725716,0.0565062,0.55212361,149.1388,08/23.0/2022,2000,g 13.5,4.0
# From MPC107684
P/2015 M2 (PANSTARRS),e,3.9701,86.5851,225.9193,7.240835,0.0505849,0.18012529,128.2603,08/23.0/2022,2000,g  8.5,4.0
# From MPEC 2021-P47
C/2015 O1 (PANSTARRS),h,02/20.1762/2018,127.1900,299.8357,89.5607,1.001495,3.722627,2000,6.5,4.0
# From MPC 99819
P/2015 P4 (PANSTARRS),e,8.7174,104.6991,280.6396,6.046928,0.0662830,0.58562508,159.3483,08/23.0/2022,2000,g 14.0,4.0
# From MPEC 2022-K19
P/2015 PD229 (Cameron-ISON),e,2.0255,342.6500,352.6551,7.190862,0.0511132,0.32779569,130.9588,08/23.0/2022,2000,g 11.5,2.0
# From MPC 96867
P/2015 Q2 (Pimentel),e,146.5418,228.5154,244.6242,7.353070,0.0494312,0.75056802,125.6662,08/23.0/2022,2000,g 15.5,4.0
# From MPC 98562
P/2015 R1 (PANSTARRS),e,22.6950,48.3401,300.5571,5.880299,0.0691202,0.63436763,180.4276,08/23.0/2022,2000,g 14.0,4.0
# From MPC 95734
P/2015 R2 (PANSTARRS),e,15.4855,168.5971,149.8423,4.485959,0.1037340,0.45284479,272.3113,08/23.0/2022,2000,g 14.5,4.0
# From MPC 96280
P/2015 T3 (PANSTARRS),e,13.0937,120.5019,178.6330,4.326181,0.1095335,0.50818108,359.9227,12/21.0/2014,2000,g 14.0,4.0
# From MPC102953
P/2015 TO19 (Lemmon-PANSTARRS),e,6.5003,321.6352,89.1550,4.552719,0.1014607,0.35916287,239.4371,08/23.0/2022,2000,g 14.0,4.0
# From MPC110080
P/2015 TP200 (LINEAR),e,8.7807,7.0201,82.4547,7.266045,0.0503219,0.53594123,106.9239,08/23.0/2022,2000,g 11.0,4.0
# From MPC115881
C/2015 V1 (PANSTARRS),e,139.2302,197.1423,179.6804,2224,0.0000094,0.99807625,0.0000,12/16.4265/2017,2000,g  6.5,4.0
# From MPC115881
C/2015 VL62 (Lemmon-Yeung-PANSTARRS),h,08/28.2172/2017,165.8242,95.2081,129.0131,1.001885,2.725006,2000,8.0,4.0
# From MPC101098
P/2015 W2 (Catalina),e,11.6090,294.1742,117.5265,7.291132,0.0500624,0.63506415,125.9316,08/23.0/2022,2000,g 13.0,4.0
# From MPEC 2021-N06
P/2015 X1 (PANSTARRS),e,12.1520,161.7582,218.7431,3.637153,0.1420894,0.41930895,357.9161,08/23.0/2022,2000,g 16.0,4.0
# From MPEC 2022-OB6
C/2015 XY1 (Lemmon),h,04/25.8019/2018,148.8516,281.5836,196.1442,1.000146,7.923827,2000,5.5,4.0
# From MPEC 2022-OB6
P/2015 X3 (PANSTARRS),e,24.3987,77.2774,306.7311,5.004195,0.0880446,0.43991199,226.1123,08/23.0/2022,2000,g 15.0,4.0
# From MPC119995
C/2015 X5 (PANSTARRS),e,124.3156,122.3169,27.5537,16350,0.0000005,0.99958446,0.0000,12/27.4300/2017,2000,g  7.5,4.0
# From MPC115881
P/2015 X6 (PANSTARRS),e,4.5646,106.9358,329.7869,2.752702,0.2158069,0.17300695,145.6567,08/23.0/2022,2000,g 16.0,4.0
# From MPEC 2022-O08
C/2016 A1 (PANSTARRS),e,121.2119,128.1792,10.1065,10894,0.0000009,0.99951195,0.0000,11/20.9966/2017,2000,g  6.0,4.0
# From MPC100282
P/2016 A2 (Christensen),e,26.4033,291.6177,141.2976,4.753496,0.0951008,0.27076150,249.9215,08/23.0/2022,2000,g 11.5,4.0
# From MPEC 2022-OB6
P/2016 A3 (PANSTARRS),e,8.5105,187.2302,340.9494,7.881990,0.0445400,0.38606469,86.6117,08/23.0/2022,2000,g 10.0,4.0
# From MPC102098
P/2016 A7 (PANSTARRS),e,16.6031,221.4972,352.5519,5.034718,0.0872452,0.56440141,207.2629,08/23.0/2022,2000,g 16.0,4.0
# From MPC109143
P/2016 BA14 (PANSTARRS),e,18.8965,180.5143,351.9512,3.026215,0.1872209,0.66481594,80.8383,08/23.0/2022,2000,g 21.0,4.0
# From MPEC 2021-P47
